GLOBALSTAR M069         
1 31573U 07020C   26189.61842531 -.00000070  00000+0  20753-3 0  9991
2 31573  52.0005 191.4672 0001807 195.6537 326.1281 12.23472094881425
GLOBALSTAR M072         
1 31574U 07020D   26189.78047731 -.00000089  00000+0 -68378-4 0  9996
2 31574  51.9943  42.7586 0001613  22.9478  57.9495 11.91658587877550
GLOBALSTAR M066         
1 32265U 07048C   26189.75552253 -.00000046  00000+0  40750-3 0  9996
2 32265  51.9610 355.9966 0005661  89.0906 284.5371 12.30388925862888
GLOBALSTAR M079         
1 37188U 10054A   26189.92164359 -.00000109  00000+0 -31581-4 0  9995
2 37188  52.0049  42.5075 0001086  67.1705  38.3888 12.62266408725293
GLOBALSTAR M074         
1 37189U 10054B   26189.78414304 -.00000104  00000+0 -20208-5 0  9998
2 37189  52.0029  42.1880 0000861  84.5235 355.9826 12.62261993725882
GLOBALSTAR M076         
1 37190U 10054C   26189.89449797 -.00000100  00000+0  22614-4 0  9993
2 37190  52.0040  42.0572 0001079  80.1240  21.9961 12.62262144725614
GLOBALSTAR M077         
1 37191U 10054D   26189.29407803 -.00000076  00000+0  35624-4 0  9997
2 37191  51.9946 125.7223 0002380 212.0226 316.1933 11.67547872723609
GLOBALSTAR M075         
1 37192U 10054E   26189.90286858 -.00000106  00000+0 -12631-4 0  9999
2 37192  51.9947  84.0734 0000644  55.2316  25.3253 12.62267716724688
GLOBALSTAR M073         
1 37193U 10054F   26189.72991778 -.00000100  00000+0  21064-4 0  9997
2 37193  52.0077 358.7168 0001103  87.3990 285.2259 12.62266861726654
GLOBALSTAR M083         
1 37739U 11033A   26189.35150491 -.00000092  00000+0  66186-4 0  9993
2 37739  51.9875 308.0692 0000880  98.4794 295.0572 12.62263904695624
GLOBALSTAR M088         
1 37740U 11033B   26189.32092428 -.00000086  00000+0  98130-4 0  9994
2 37740  52.0184 214.6415 0000205 156.7359 216.3828 12.62269311691165
GLOBALSTAR M091         
1 37741U 11033C   26189.97251411 -.00000087  00000+0  95779-4 0  9992
2 37741  51.9971 175.5906 0000268   7.7663  28.4167 12.62264185692039
GLOBALSTAR M085         
1 37742U 11033D   26189.96774324 -.00000098  00000+0  33227-4 0  9997
2 37742  52.0119 126.9160 0000637  28.4334  46.0926 12.62264283692547
GLOBALSTAR M081         
1 37743U 11033E   26189.21666321 -.00000095  00000+0  47298-4 0  9993
2 37743  51.9947 131.6141 0000515  45.8634  93.7786 12.62265338692598
GLOBALSTAR M089         
1 37744U 11033F   26189.87598427 -.00000109  00000+0 -29695-4 0  9995
2 37744  51.9932  83.7619 0000646  84.1254 354.0805 12.62267546693521
GLOBALSTAR M084         
1 38040U 11080A   26189.74710921 -.00000093  00000+0  59832-4 0  9995
2 38040  52.0031 311.6475 0000976 120.1138  32.0886 12.62267858671483
GLOBALSTAR M080         
1 38041U 11080B   26189.37568341 -.00000101  00000+0  15974-4 0  9991
2 38041  51.9971 314.4858 0000382 313.7000  79.8485 12.62259863671560
GLOBALSTAR M082         
1 38042U 11080C   26189.65634940 -.00000091  00000+0  70457-4 0  9997
2 38042  52.0072 269.1535 0000284 108.4233  50.9049 12.62264004672303
GLOBALSTAR M092         
1 38043U 11080D   26189.94758727 -.00000089  00000+0  82883-4 0  9993
2 38043  52.0102 358.6633 0000839  94.0750  68.6077 12.62267573670793
GLOBALSTAR M090         
1 38044U 11080E   26189.49303891 -.00000089  00000+0  83605-4 0  9995
2 38044  52.0118 263.6136 0000475 107.3452 268.2543 12.62252976672404
GLOBALSTAR M086         
1 38045U 11080F   26189.51388174 -.00000091  00000+0  71057-4 0  9997
2 38045  51.9891 263.4440 0001629 101.9067 271.6031 12.62287714672353
GLOBALSTAR M097         
1 39072U 13005A   26189.93852720 -.00000086  00000+0  99019-4 0  9998
2 39072  52.0019 177.1224 0000267  35.6636 324.4248 12.62271402619659
GLOBALSTAR M093         
1 39073U 13005B   26189.35744497 -.00000084  00000+0  11303-3 0  9993
2 39073  52.0079 172.2458 0000484  35.6111 324.4788 12.62266257619538
GLOBALSTAR M094         
1 39074U 13005C   26189.91157715 -.00000126  00000+0 -12353-3 0  9991
2 39074  51.9959  84.6549 0000929  53.9356 306.1597 12.62268281621211
GLOBALSTAR M096         
1 39075U 13005D   26189.21245548 -.00000093  00000+0  61011-4 0  9995
2 39075  52.0058 135.6005 0000576  28.4831 331.6068 12.62265644620047
GLOBALSTAR M078         
1 39076U 13005E   26189.34392781 -.00000090  00000+0  76485-4 0  9990
2 39076  51.9845 219.1832 0000673 316.7501  43.3313 12.62260046618689
GLOBALSTAR M095         
1 39077U 13005F   26189.44980741 -.00000086  00000+0  99950-4 0  9998
2 39077  52.0054 216.4947 0000262   2.5818 357.5050 12.62264011618556
GLOBALSTAR M087         
1 52888U 22064A   26189.77968433 -.00000102  00000+0  10892-4 0  9995
2 52888  52.0014 356.7155 0000948  76.4708 283.6265 12.62269287193864
