OBJECT_NAME,OBJECT_ID,EPOCH,MEAN_MOTION,ECCENTRICITY,INCLINATION,RA_OF_ASC_NODE,ARG_OF_PERICENTER,MEAN_ANOMALY,EPHEMERIS_TYPE,CLASSIFICATION_TYPE,NORAD_CAT_ID,ELEMENT_SET_NO,REV_AT_EPOCH,BSTAR,MEAN_MOTION_DOT,MEAN_MOTION_DDOT
GLOBALSTAR M069,2007-020C,2026-07-08T14:50:31.946784,12.23472094,.00018076,52.0005,191.4672,195.6537,326.1281,0,U,31573,999,88142,.20753249E-3,-.7E-6,0
GLOBALSTAR M072,2007-020D,2026-07-08T18:43:53.239584,11.91658587,.0001613,51.9943,42.7586,22.9478,57.9495,0,U,31574,999,87755,-.68378436E-4,-.89E-6,0
GLOBALSTAR M066,2007-048C,2026-07-08T18:07:57.146592,12.30388925,.00056612,51.9610,355.9966,89.0906,284.5371,0,U,32265,999,86288,.40749612E-3,-.46E-6,0
GLOBALSTAR M079,2010-054A,2026-07-08T22:07:10.006176,12.62266408,.00010867,52.0049,42.5075,67.1705,38.3888,0,U,37188,999,72529,-.3158083E-4,-.109E-5,0
GLOBALSTAR M074,2010-054B,2026-07-08T18:49:09.958656,12.62261993,.00008619,52.0029,42.1880,84.5235,355.9826,0,U,37189,999,72588,-.2020829E-5,-.104E-5,0
GLOBALSTAR M076,2010-054C,2026-07-08T21:28:04.624608,12.62262144,.00010791,52.0040,42.0572,80.1240,21.9961,0,U,37190,999,72561,.22614016E-4,-.1E-5,0
GLOBALSTAR M077,2010-054D,2026-07-08T07:03:28.341792,11.67547872,.000238,51.9946,125.7223,212.0226,316.1933,0,U,37191,999,72360,.35623511E-4,-.76E-6,0
GLOBALSTAR M075,2010-054E,2026-07-08T21:40:07.845312,12.62267716,.00006442,51.9947,84.0734,55.2316,25.3253,0,U,37192,999,72468,-.12630991E-4,-.106E-5,0
GLOBALSTAR M073,2010-054F,2026-07-08T17:31:04.896192,12.62266861,.00011035,52.0077,358.7168,87.3990,285.2259,0,U,37193,999,72665,.21064168E-4,-.1E-5,0
GLOBALSTAR M083,2011-033A,2026-07-08T08:26:10.024224,12.62263904,.00008808,51.9875,308.0692,98.4794,295.0572,0,U,37739,999,69562,.66185587E-4,-.92E-6,0
GLOBALSTAR M088,2011-033B,2026-07-08T07:42:07.857792,12.62269311,.00002059,52.0184,214.6415,156.7359,216.3828,0,U,37740,999,69116,.9813034E-4,-.86E-6,0
GLOBALSTAR M091,2011-033C,2026-07-08T23:20:25.219104,12.62264185,.00002689,51.9971,175.5906,7.7663,28.4167,0,U,37741,999,69203,.95778841E-4,-.87E-6,0
GLOBALSTAR M085,2011-033D,2026-07-08T23:13:33.015936,12.62264283,.00006378,52.0119,126.9160,28.4334,46.0926,0,U,37742,999,69254,.33226545E-4,-.98E-6,0
GLOBALSTAR M081,2011-033E,2026-07-08T05:11:59.701344,12.62265338,.00005155,51.9947,131.6141,45.8634,93.7786,0,U,37743,999,69259,.47298216E-4,-.95E-6,0
GLOBALSTAR M089,2011-033F,2026-07-08T21:01:25.040928,12.62267546,.00006466,51.9932,83.7619,84.1254,354.0805,0,U,37744,999,69352,-.29695031E-4,-.109E-5,0
GLOBALSTAR M084,2011-080A,2026-07-08T17:55:50.235744,12.62267858,.00009763,52.0031,311.6475,120.1138,32.0886,0,U,38040,999,67148,.59831672E-4,-.93E-6,0
GLOBALSTAR M080,2011-080B,2026-07-08T09:00:59.046624,12.62259863,.00003822,51.9971,314.4858,313.7000,79.8485,0,U,38041,999,67156,.15974104E-4,-.101E-5,0
GLOBALSTAR M082,2011-080C,2026-07-08T15:45:08.588160,12.62264004,.00002848,52.0072,269.1535,108.4233,50.9049,0,U,38042,999,67230,.70456627E-4,-.91E-6,0
GLOBALSTAR M092,2011-080D,2026-07-08T22:44:31.540128,12.62267573,.00008393,52.0102,358.6633,94.0750,68.6077,0,U,38043,999,67079,.82882539E-4,-.89E-6,0
GLOBALSTAR M090,2011-080E,2026-07-08T11:49:58.561824,12.62252976,.00004755,52.0118,263.6136,107.3452,268.2543,0,U,38044,999,67240,.83604988E-4,-.89E-6,0
GLOBALSTAR M086,2011-080F,2026-07-08T12:19:59.382336,12.62287714,.00016295,51.9891,263.4440,101.9067,271.6031,0,U,38045,999,67235,.71057432E-4,-.91E-6,0
GLOBALSTAR M097,2013-005A,2026-07-08T22:31:28.750080,12.62271402,.00002673,52.0019,177.1224,35.6636,324.4248,0,U,39072,999,61965,.99019104E-4,-.86E-6,0
GLOBALSTAR M093,2013-005B,2026-07-08T08:34:43.245408,12.62266257,.00004842,52.0079,172.2458,35.6111,324.4788,0,U,39073,999,61953,.11302599E-3,-.84E-6,0
GLOBALSTAR M094,2013-005C,2026-07-08T21:52:40.265760,12.62268281,.00009291,51.9959,84.6549,53.9356,306.1597,0,U,39074,999,62121,-.12352531E-3,-.126E-5,0
GLOBALSTAR M096,2013-005D,2026-07-08T05:05:56.153472,12.62265644,.00005763,52.0058,135.6005,28.4831,331.6068,0,U,39075,999,62004,.61011403E-4,-.93E-6,0
GLOBALSTAR M078,2013-005E,2026-07-08T08:15:15.362784,12.62260046,.00006731,51.9845,219.1832,316.7501,43.3313,0,U,39076,999,61868,.7648501E-4,-.9E-6,0
GLOBALSTAR M095,2013-005F,2026-07-08T10:47:43.360224,12.62264011,.00002629,52.0054,216.4947,2.5818,357.5050,0,U,39077,999,61855,.99949783E-4,-.86E-6,0
GLOBALSTAR M087,2022-064A,2026-07-08T18:42:44.726112,12.62269287,.00009488,52.0014,356.7155,76.4708,283.6265,0,U,52888,999,19386,.10892127E-4,-.102E-5,0
